{"type":"FeatureCollection","features":[{"type":"Feature","properties":{},"geometry":{"coordinates":[[[-96.33660735577385,30.620463300327494],[-96.33681771303253,30.620454406965614],[-96.33702604432078,30.620427812532828],[-96.33723034318385,30.620383773162466],[-96.33742864201004,30.620322713001208],[-96.33761903098392,30.62024522012331],[-96.3388226803262,30.621566539891],[-96.34056657883391,30.622665334200864],[-96.34169021192022,30.621634531134674],[-96.34334861694536,30.620131538376057],[-96.34458104857006,30.61915898879087],[-96.34575543117909,30.617996535713026],[-96.34871819633015,30.61576805110465],[-96.34564193820393,30.61254055135276],[-96.343397027696,30.6101413761847],[-96.33905407384366,30.604536828040175],[-96.33622132693807,30.607338075033667],[-96.33438964280775,30.609106946523035],[-96.33080489037752,30.612215645954997],[-96.33219910675231,30.613472036412418],[-96.33417846993235,30.615671707354032],[-96.33517225760541,30.616744831945024],[-96.33523548244023,30.61697068557344],[-96.33524591296677,30.61718877019552],[-96.33508986390342,30.61731048411208],[-96.33494842852683,30.617444774902236],[-96.33482296894827,30.617590349321762],[-96.33471469344566,30.617745805456988],[-96.33462464482571,30.617909646224213],[-96.33455369037917,30.618080293785738],[-96.3345025135255,30.618256104743786],[-96.33447160722767,30.618435385966187],[-96.33446126924079,30.618616410891192],[-96.33447159924037,30.6187974361547],[-96.33450249785787,30.618976718379585],[-96.33455366763332,30.61915253096559],[-96.33462461587573,30.619323180717966],[-96.33471465940407,30.619487024154758],[-96.33482293112328,30.619642483335664],[-96.33494838837203,30.61978806105995],[-96.33508982296195,30.619922355286946],[-96.33524587281197,30.620044072640344],[-96.33541503506542,30.62015204086601],[-96.33559568056376,30.62024522012331],[-96.33578606953763,30.620322713001208],[-96.33598436836382,30.620383773162466],[-96.33618866722688,30.620427812532828],[-96.33639699851516,30.620454406965614],[-96.33660735577385,30.620463300327494]]],"type":"Polygon"}}]}