{"type":"FeatureCollection","features":[{"type":"Feature","properties":{},"geometry":{"coordinates":[[[-96.34066715211915,30.62259859908319],[-96.34862187505969,30.61578864580838],[-96.35077627918949,30.613756263278603],[-96.35786095430818,30.60773017661812],[-96.36399271990847,30.60213164179561],[-96.35384216198919,30.59207486225712],[-96.3451002529246,30.599599714061796],[-96.33900991817322,30.60459218421643],[-96.3312623494759,30.612116063816018],[-96.33515684924858,30.617000923846987],[-96.33482540245949,30.617642711957686],[-96.33449395567038,30.618320150347728],[-96.33457681736776,30.618961929712412],[-96.33474254076211,30.619639358871197],[-96.33536400349183,30.620102860301287],[-96.33598546622154,30.62031678328951],[-96.3366483598002,30.62053070580491],[-96.33714552998406,30.62045939835255],[-96.33772556186487,30.6203880908469],[-96.33822273204873,30.620958549418333],[-96.33888562562736,30.62149335127532],[-96.33971424260031,30.62213510960308],[-96.34021141278376,30.622455987171804],[-96.34066715211915,30.62259859908319]]],"type":"Polygon"}},{"type":"Feature","properties":{},"geometry":{"coordinates":[[-96.34862187505969,30.61568167937081],[-96.33900991817322,30.60459218421643]],"type":"LineString"}},{"type":"Feature","properties":{},"geometry":{"coordinates":[[-96.35789503850134,30.607686303315617],[-96.35289471597989,30.603532260040552],[-96.3437202111794,30.610006502190885]],"type":"LineString"}},{"type":"Feature","properties":{},"geometry":{"coordinates":[[-96.34972059820505,30.605815134701288],[-96.3444159082257,30.600051708248543]],"type":"LineString"}},{"type":"Feature","properties":{},"geometry":{"coordinates":[[-96.3607647888178,30.60514150515165],[-96.3563732012122,30.600875075878136],[-96.3529381970451,30.603532260040552]],"type":"LineString"}},{"type":"Feature","properties":{},"geometry":{"coordinates":[[-96.34376369224464,30.610081346390103],[-96.33837204013483,30.613636379239907],[-96.33432830105191,30.60922063460353]],"type":"LineString"}},{"type":"Feature","properties":{},"geometry":{"coordinates":[[-96.33767634308809,30.620409291124133],[-96.3433288815906,30.616517731154048],[-96.3460681887114,30.61808934151081]],"type":"LineString"}},{"type":"Feature","properties":{},"geometry":{"coordinates":[[-96.3433288815906,30.616555150744574],[-96.33971995316217,30.612775699050616]],"type":"LineString"}}]}