{"type":"FeatureCollection","features":[{"type":"Feature","properties":{},"geometry":{"coordinates":[[[-96.33660735577385,30.620463300327494],[-96.33681771303253,30.620454406965614],[-96.33702604432078,30.620427812532828],[-96.33723034318385,30.620383773162466],[-96.33742864201004,30.620322713001208],[-96.33761903098392,30.62024522012331],[-96.3388226803262,30.621566539891],[-96.34056657883391,30.622665334200864],[-96.34169021192022,30.621634531134674],[-96.34334861694536,30.620131538376057],[-96.34458104857006,30.61915898879087],[-96.34575543117909,30.617996535713026],[-96.34871819633015,30.61576805110465],[-96.34564193820393,30.61254055135276],[-96.343397027696,30.6101413761847],[-96.33905407384366,30.604536828040175],[-96.33622132693807,30.607338075033667],[-96.33438964280775,30.609106946523035],[-96.33080489037752,30.612215645954997],[-96.33219910675231,30.613472036412418],[-96.33417846993235,30.615671707354032],[-96.33517225760541,30.616744831945024],[-96.33523548244023,30.61697068557344],[-96.33524591296677,30.61718877019552],[-96.33508986390342,30.61731048411208],[-96.33494842852683,30.617444774902236],[-96.33482296894827,30.617590349321762],[-96.33471469344566,30.617745805456988],[-96.33462464482571,30.617909646224213],[-96.33455369037917,30.618080293785738],[-96.3345025135255,30.618256104743786],[-96.33447160722767,30.618435385966187],[-96.33446126924079,30.618616410891192],[-96.33447159924037,30.6187974361547],[-96.33450249785787,30.618976718379585],[-96.33455366763332,30.61915253096559],[-96.33462461587573,30.619323180717966],[-96.33471465940407,30.619487024154758],[-96.33482293112328,30.619642483335664],[-96.33494838837203,30.61978806105995],[-96.33508982296195,30.619922355286946],[-96.33524587281197,30.620044072640344],[-96.33541503506542,30.62015204086601],[-96.33559568056376,30.62024522012331],[-96.33578606953763,30.620322713001208],[-96.33598436836382,30.620383773162466],[-96.33618866722688,30.620427812532828],[-96.33639699851516,30.620454406965614],[-96.33660735577385,30.620463300327494]]],"type":"Polygon"}},{"type":"Feature","properties":{},"geometry":{"coordinates":[[-96.33765419369362,30.620272604967084],[-96.34337821714374,30.616313579005435],[-96.34585862730539,30.617937346564375]],"type":"LineString"}},{"type":"Feature","properties":{},"geometry":{"coordinates":[[-96.33833259647272,30.615328358447826],[-96.33521618370582,30.617207566760825]],"type":"LineString"}},{"type":"Feature","properties":{},"geometry":{"coordinates":[[-96.34337821714374,30.620108408951822],[-96.34119460819778,30.617846124389317]],"type":"LineString"}},{"type":"Feature","properties":{},"geometry":{"coordinates":[[-96.34469262252848,30.61910498280689],[-96.34255141375638,30.61686091942765]],"type":"LineString"}},{"type":"Feature","properties":{},"geometry":{"coordinates":[[-96.34390821931498,30.61828399004338],[-96.34253021366966,30.619232692166804]],"type":"LineString"}},{"type":"Feature","properties":{},"geometry":{"coordinates":[[-96.34465022235463,30.617098099315854],[-96.34352661775158,30.61790085770437]],"type":"LineString"}},{"type":"Feature","properties":{},"geometry":{"coordinates":[[-96.33748459299866,30.616915653299685],[-96.33684859039342,30.6162406000484]],"type":"LineString"}},{"type":"Feature","properties":{},"geometry":{"coordinates":[[-96.33918059994679,30.616167621036396],[-96.33833259647272,30.61529186860527],[-96.33799339508317,30.614853989418947]],"type":"LineString"}},{"type":"Feature","properties":{},"geometry":{"coordinates":[[-96.33515258344528,30.61675145159076],[-96.33650938900387,30.61587570443973],[-96.33799339508317,30.614853989418947],[-96.33879899838384,30.614306637651197],[-96.33915939986008,30.614635049083148],[-96.33990140289973,30.614251902304275],[-96.33890499881782,30.613138943539326],[-96.33818419586487,30.613649811445654],[-96.33879899838384,30.61434312786507]],"type":"LineString"}},{"type":"Feature","properties":{},"geometry":{"coordinates":[[-96.33650938900387,30.615893949253078],[-96.33684859039342,30.616258844793023]],"type":"LineString"}},{"type":"Feature","properties":{},"geometry":{"coordinates":[[-96.3417140103257,30.621631772398786],[-96.34061160580936,30.620436800704255],[-96.33937140072877,30.619077616494025],[-96.33869299794922,30.61827486786312]],"type":"LineString"}},{"type":"Feature","properties":{},"geometry":{"coordinates":[[-96.34338984066595,30.61636091651664],[-96.34338984066595,30.615919005742242],[-96.34231617489806,30.61471378428864],[-96.34131253081067,30.61360898477774],[-96.34294637002279,30.61256443546452],[-96.34467357147541,30.613126886494967],[-96.34233951545808,30.61471378428864]],"type":"LineString"}},{"type":"Feature","properties":{},"geometry":{"coordinates":[[-96.34296971058279,30.612604610646997],[-96.34187270425488,30.61113820570749],[-96.34348320290648,30.610153894047144]],"type":"LineString"}},{"type":"Feature","properties":{},"geometry":{"coordinates":[[-96.34187270425488,30.611158293596674],[-96.34012216224222,30.612303296376226],[-96.33757804118332,30.608948600836726],[-96.33862836639119,30.60828568317703]],"type":"LineString"}},{"type":"Feature","properties":{},"geometry":{"coordinates":[[-96.34565387500277,30.61254434786784],[-96.34462689035492,30.613146973971624],[-96.344906977077,30.613548722623662],[-96.34411339803123,30.613508547833703],[-96.34420676027177,30.61300636154931],[-96.34563053444226,30.612584523057862],[-96.344906977077,30.613548722623662],[-96.34343652178646,30.615939092639692]],"type":"LineString"}},{"type":"Feature","properties":{},"geometry":{"coordinates":[[-96.34012216224222,30.612303296376226],[-96.3388851125528,30.613146973971624],[-96.33720459222067,30.611419435773485],[-96.33680780269754,30.61186136708288],[-96.33827825798856,30.613528635230338]],"type":"LineString"}},{"type":"Feature","properties":{},"geometry":{"coordinates":[[-96.33606090477225,30.614412476581094],[-96.33417031939854,30.61571813654153]],"type":"LineString"}},{"type":"Feature","properties":{},"geometry":{"coordinates":[[-96.33684380671197,30.611846626649978],[-96.33432782385864,30.60917373915764]],"type":"LineString"}},{"type":"Feature","properties":{},"geometry":{"coordinates":[[-96.33432782385864,30.613521372989908],[-96.33344329863667,30.61257404528469],[-96.33316811301233,30.612218795006683]],"type":"LineString"}},{"type":"Feature","properties":{},"geometry":{"coordinates":[[-96.33226393167446,30.613504456504828],[-96.33350226698481,30.612658628492753],[-96.33603790595406,30.610966950303762]],"type":"LineString"}},{"type":"Feature","properties":{},"geometry":{"coordinates":[[-96.33759073912138,30.60895381475065],[-96.33615584265031,30.607346659690563]],"type":"LineString"}}]}