{"type":"FeatureCollection","features":[{"type":"Feature","properties":{},"geometry":{"coordinates":[[[-96.33529100242593,30.617065494261908],[-96.33507879559079,30.617237971536724],[-96.33490195656181,30.61753219676615],[-96.33471332826379,30.61786700369791],[-96.33457185704052,30.618333702337523],[-96.33453648923481,30.618749670968455],[-96.33461901411476,30.61901345502737],[-96.33473690680091,30.619297529363834],[-96.33484301021848,30.61951058456974],[-96.33499627071033,30.619804802892347],[-96.33531458096306,30.62004829324148],[-96.3355739448725,30.620159892780194],[-96.33584509805097,30.62028163758515],[-96.33616340830321,30.620332364541255],[-96.33648171855594,30.620413527617288],[-96.33683539661439,30.620393236854838],[-96.33715370686713,30.620383091471624],[-96.33740128150797,30.620322219152484],[-96.33770780249216,30.620220765201395],[-96.33809684835627,30.62074832458427],[-96.33886315081598,30.621448350864696],[-96.33987702791701,30.622138226883507],[-96.34069048745145,30.622594759781137],[-96.34118563673317,30.622087500873718],[-96.34168078601486,30.621651256086608],[-96.34244708847507,30.620981667240486],[-96.34343738703849,30.620149747372494],[-96.3438911412784,30.61972914099185],[-96.3443501453464,30.619316962431625],[-96.34478919271544,30.61893913054294],[-96.34526815348194,30.618526948618367],[-96.34556750396095,30.61826933402496],[-96.34576707094695,30.617960195607424],[-96.34620611831642,30.617685405074084],[-96.3466850790825,30.617256043305076],[-96.34704429965748,30.61696407621409],[-96.34750330372546,30.61655188588132],[-96.34808204798496,30.616139693793016],[-96.34864083554552,30.615710325169104],[-96.34955822617796,30.61683720834945],[-96.35013777106927,30.61756615073287],[-96.35085105708929,30.61841018242491],[-96.35156434310976,30.619139112964916],[-96.35209930762453,30.619676216166596],[-96.35272343289238,30.62029004474782],[-96.3533029777837,30.621018961132947],[-96.35406084418024,30.621824599172527],[-96.35459580869548,30.62251514072726],[-96.3553090947155,30.623167314338247],[-96.35602238073596,30.624126385195808],[-96.35642360412206,30.624510010877927],[-96.35758269390513,30.623781120781715],[-96.35811765842037,30.622937135918505],[-96.35874178368778,30.622323324122945],[-96.36007919497563,30.621018961132947],[-96.36155034739265,30.619637851751193],[-96.36288775868051,30.618295087627956],[-96.36404684846313,30.61729759365079],[-96.3651613578697,30.616453552259074],[-96.36649876915756,30.61511074397039],[-96.36801450195067,30.613691183530136],[-96.36921817210983,30.612693642120604],[-96.37042184226853,30.611657722857828],[-96.37184841430901,30.610314848060227],[-96.37037726189246,30.609010323282803],[-96.3695302347433,30.608166209651813],[-96.36796992157412,30.60674654740734],[-96.36658792991017,30.605211754005595],[-96.36507219711707,30.603715307023663],[-96.36422516996839,30.602717662859234],[-96.36319982131397,30.601029318558858],[-96.36195157077874,30.599072337211055],[-96.361134232613,30.597570718741764],[-96.36005769936365,30.596425993575934],[-96.35872787387252,30.595063149923135],[-96.35777797258739,30.594409004628943],[-96.35644808246188,30.59342794341164],[-96.35499157394187,30.592501290926478],[-96.35410500672288,30.59201058689858],[-96.35201519597008,30.593209625714053],[-96.35030541286152,30.594790675775755],[-96.34827912648659,30.59658982312753],[-96.34650611101746,30.598443182640835],[-96.34447982941929,30.599969430786217],[-96.34270691087436,30.601386636654667],[-96.3408708189917,30.60296733205284],[-96.33909794598009,30.604547900068297],[-96.33745174502535,30.60601941703284],[-96.33605846123686,30.607545378301097],[-96.3343485594244,30.60901685429107],[-96.33333570216713,30.610106792164103],[-96.3318158157974,30.6112512590867],[-96.33073899935387,30.61212327479842],[-96.33200529060004,30.613376750112565],[-96.33308176937058,30.614684678736495],[-96.33422189054973,30.615719986070445],[-96.33529100242593,30.617065494261908]]],"type":"Polygon"},"id":0}]}