{"type":"FeatureCollection","features":[{"type":"Feature","properties":{},"geometry":{"type":"Polygon","coordinates":[[[-96.3366795369289,30.620536610673735],[-96.33690527427522,30.620527067075354],[-96.33712883751505,30.620498528195874],[-96.33734807348479,30.62045126889693],[-96.33756087070486,30.620385744338417],[-96.33776517971877,30.62030258559398],[-96.33795903283463,30.620202593572046],[-96.33814056307823,30.620086731300972],[-96.33830802217543,30.619956114652574],[-96.33845979739058,30.61981200159355],[-96.33859442705844,30.61965578006844],[-96.33871061466031,30.619488954630736],[-96.33880724130888,30.619313131951095],[-96.33888337652114,30.61913000534231],[-96.33893828717622,30.618941338450046],[-96.33897144457188,30.618748948266617],[-96.33898252951167,30.618554687631264],[-96.33897143537398,30.61836042738572],[-96.33893826913386,30.618168038356725],[-96.3388833503277,30.617979373339164],[-96.33880720797099,30.6177962492533],[-96.33871057545909,30.617620429647843],[-96.33859438350035,30.617453607717458],[-96.33845975114957,30.617297389998015],[-96.33830797502851,30.617153280896744],[-96.33814051683721,30.617022668206097],[-96.33795898927654,30.616906809740684],[-96.33776514051755,30.61680682122607],[-96.33756083736694,30.616723665555813],[-96.33734804729137,30.61665814352023],[-96.33712881947271,30.616610886095984],[-96.33690526507732,30.61658234837094],[-96.3366795369289,30.616572805162352],[-96.33645380878046,30.61658234837094],[-96.33623025438507,30.616610886095984],[-96.33601102656641,30.61665814352023],[-96.33579823649083,30.616723665555813],[-96.33559393334025,30.61680682122607],[-96.33540008458122,30.616906809740684],[-96.33521855702055,30.617022668206097],[-96.33505109882927,30.617153280896744],[-96.3348993227082,30.617297389998015],[-96.33476469035742,30.617453607717458],[-96.33464849839868,30.617620429647843],[-96.33455186588678,30.6177962492533],[-96.33447572353006,30.617979373339164],[-96.3344208047239,30.618168038356725],[-96.33438763848379,30.61836042738572],[-96.33437654434611,30.618554687631264],[-96.3343876292859,30.618748948266617],[-96.33442078668155,30.618941338450046],[-96.33447569733664,30.61913000534231],[-96.33455183254888,30.619313131951095],[-96.33464845919745,30.619488954630736],[-96.33476464679934,30.61965578006844],[-96.33489927646718,30.61981200159355],[-96.33505105168234,30.619956114652574],[-96.33521851077954,30.620086731300972],[-96.33540004102315,30.620202593572046],[-96.33559389413902,30.62030258559398],[-96.33579820315292,30.620385744338417],[-96.33601100037298,30.62045126889693],[-96.33623023634273,30.620498528195874],[-96.33645379958254,30.620527067075354],[-96.3366795369289,30.620536610673735]]]}}]}